NORAD_CAT_ID,OBJECT_NAME,OBJECT_TYPE,EPOCH,MEAN_MOTION,ECCENTRICITY,INCLINATION,RA_OF_ASC_NODE,ARG_OF_PERICENTER,MEAN_ANOMALY,BSTAR,MEAN_MOTION_DOT,MEAN_MOTION_DDOT,TLE_LINE0,TLE_LINE1,TLE_LINE2,SEMIMAJOR_AXIS,PERIOD,APOGEE,PERIGEE,DECAYED
53541.0,STARLINK-4485,PAYLOAD,2024-02-13 21:52:22,15.08838375,0.0001266,53.2159,222.4496,90.2647,269.849,-8.9464e-06,-4.3e-06,0.0,0 STARLINK-4485,1 53541U 22101Q   24044.91136944 -.00000430  00000-0 -89464-5 0  9990,2 53541  53.2159 222.4496 0001266  90.2647 269.8490 15.08838375 82913,6917.885,95.438,540.626,538.875,0.0
53541.0,STARLINK-4485,PAYLOAD,2024-02-14 12:10:51,15.08834251,0.0001337,53.2177,219.7738,92.0138,268.1008,-5.2878e-05,-1.129e-05,0.0,0 STARLINK-4485,1 53541U 22101Q   24045.50753520 -.00001129  00000-0 -52878-4 0  9995,2 53541  53.2177 219.7738 0001337  92.0138 268.1008 15.08834251 83002,6917.898,95.438,540.688,538.838,0.0
53541.0,STARLINK-4485,PAYLOAD,2024-02-14 18:32:23,15.08836917,0.0001385,53.2178,218.5888,101.2016,258.9132,1.1793e-05,-1e-06,0.0,0 STARLINK-4485,1 53541U 22101Q   24045.77249234 -.00000100  00000-0  11793-4 0  9994,2 53541  53.2178 218.5888 0001385 101.2016 258.9132 15.08836917 83047,6917.89,95.438,540.713,538.797,0.0
53541.0,STARLINK-4485,PAYLOAD,2024-02-15 04:04:42,15.08837484,0.0001337,53.217,216.8024,83.2583,276.8561,-2.9061e-05,-7.5e-06,0.0,0 STARLINK-4485,1 53541U 22101Q   24046.16993373 -.00000750  00000-0 -29061-4 0  9997,2 53541  53.2170 216.8024 0001337  83.2583 276.8561 15.08837484 82412,6917.888,95.438,540.678,538.828,0.0
53541.0,STARLINK-4485,PAYLOAD,2024-02-15 19:58:33,15.08838948,0.0001297,53.2171,213.8288,88.8185,271.2956,8.4923e-05,1.064e-05,0.0,0 STARLINK-4485,1 53541U 22101Q   24046.83233295  .00001064  00000-0  84923-4 0  9996,2 53541  53.2171 213.8288 0001297  88.8185 271.2956 15.08838948 83207,6917.884,95.438,540.646,538.851,0.0
53541.0,STARLINK-4485,PAYLOAD,2024-02-16 03:55:29,15.0883899,0.0001231,53.2168,212.3425,93.7609,266.3524,9.8687e-05,1.283e-05,0.0,0 STARLINK-4485,1 53541U 22101Q   24047.16353303  .00001283  00000-0  98687-4 0  9991,2 53541  53.2168 212.3425 0001231  93.7609 266.3524 15.08838990 83252,6917.883,95.438,540.6,538.897,0.0
53541.0,STARLINK-4485,PAYLOAD,2024-02-16 19:49:20,15.08847397,0.0001302,53.2166,209.367,90.9362,269.1779,0.00014583,2.034e-05,0.0,0 STARLINK-4485,1 53541U 22101Q   24047.82592640  .00002034  00000-0  14583-3 0  9990,2 53541  53.2166 209.3670 0001302  90.9362 269.1779 15.08847397 82660,6917.858,95.437,540.623,538.822,0.0
53541.0,STARLINK-4485,PAYLOAD,2024-02-17 03:46:16,15.08839857,0.000152,53.2167,207.8796,74.3474,285.7686,5.4258e-05,5.76e-06,0.0,0 STARLINK-4485,1 53541U 22101Q   24048.15713389  .00000576  00000-0  54258-4 0  9995,2 53541  53.2167 207.8796 0001520  74.3474 285.7686 15.08839857 82714,6917.881,95.438,540.797,538.694,0.0
53541.0,STARLINK-4485,PAYLOAD,2024-02-17 14:53:59,15.08827626,0.0001389,53.2167,205.7986,81.1502,278.9647,-3.1574e-05,-7.9e-06,0.0,0 STARLINK-4485,1 53541U 22101Q   24048.62082655 -.00000790  00000-0 -31574-4 0  9998,2 53541  53.2167 205.7986 0001389  81.1502 278.9647 15.08827626 83479,6917.918,95.438,540.744,538.822,0.0
53541.0,STARLINK-4485,PAYLOAD,2024-02-17 18:04:45,15.08832261,0.0001317,53.2166,205.204,81.1037,279.0104,-3.8588e-05,-9.02e-06,0.0,0 STARLINK-4485,1 53541U 22101Q   24048.75330473 -.00000902  00000-0 -38588-4 0  9993,2 53541  53.2166 205.2040 0001317  81.1037 279.0104 15.08832261 82805,6917.904,95.438,540.68,538.858,0.0
53541.0,STARLINK-4485,PAYLOAD,2024-02-18 14:44:45,15.08846193,0.0001183,53.217,201.3382,80.1314,279.9812,9.1982e-05,1.177e-05,0.0,0 STARLINK-4485,1 53541U 22101Q   24049.61441182  .00001177  00000-0  91982-4 0  9999,2 53541  53.2170 201.3382 0001183  80.1314 279.9812 15.08846193 83629,6917.861,95.437,540.545,538.908,0.0
53541.0,STARLINK-4485,PAYLOAD,2024-02-18 19:30:53,15.08859548,0.0001175,53.2164,200.4451,88.6194,271.4933,0.00010524,1.388e-05,0.0,0 STARLINK-4485,1 53541U 22101Q   24049.81312263  .00001388  00000-0  10524-3 0  9994,2 53541  53.2164 200.4451 0001175  88.6194 271.4933 15.08859548 82964,6917.821,95.436,540.498,538.873,0.0
53541.0,STARLINK-4485,PAYLOAD,2024-02-19 03:27:50,15.08839527,0.0001465,53.2182,198.9585,86.0816,274.0343,4.7257e-05,4.64e-06,0.0,0 STARLINK-4485,1 53541U 22101Q   24050.14433674  .00000464  00000-0  47257-4 0  9990,2 53541  53.2182 198.9585 0001465  86.0816 274.0343 15.08839527 83014,6917.882,95.438,540.76,538.733,0.0
53541.0,STARLINK-4485,PAYLOAD,2024-02-19 09:49:23,15.08831187,0.000167,53.2172,197.7709,80.2343,279.8838,0.00016527,2.343e-05,0.0,0 STARLINK-4485,1 53541U 22101Q   24050.40930232  .00002343  00000-0  16527-3 0  9994,2 53541  53.2172 197.7709 0001670  80.2343 279.8838 15.08831187 83057,6917.907,95.438,540.928,538.617,0.0
53541.0,STARLINK-4485,PAYLOAD,2024-02-19 14:35:33,15.08833635,0.0001393,53.2156,196.8778,89.2956,270.8195,0.00015785,2.225e-05,0.0,0 STARLINK-4485,1 53541U 22101Q   24050.60802296  .00002225  00000-0  15785-3 0  9998,2 53541  53.2156 196.8778 0001393  89.2956 270.8195 15.08833635 83772,6917.9,95.438,540.729,538.801,0.0
53541.0,STARLINK-4485,PAYLOAD,2024-02-19 16:10:56,15.08834781,0.0001427,53.2161,196.5812,85.0228,275.0927,0.000178,2.546e-05,0.0,0 STARLINK-4485,1 53541U 22101Q   24050.67426348  .00002546  00000-0  17800-3 0  9991,2 53541  53.2161 196.5812 0001427  85.0228 275.0927 15.08834781 83782,6917.896,95.438,540.749,538.774,0.0
53541.0,STARLINK-4485,PAYLOAD,2024-02-20 14:26:20,15.08842434,0.0001494,53.2172,192.4185,86.7719,273.3444,-2.364e-05,-6.64e-06,0.0,0 STARLINK-4485,1 53541U 22101Q   24051.60162132 -.00000664  00000-0 -23640-4 0  9994,2 53541  53.2172 192.4185 0001494  86.7719 273.3444 15.08842434 83924,6917.873,95.437,540.771,538.704,0.0
53541.0,STARLINK-4485,PAYLOAD,2024-02-20 19:12:29,15.08845144,0.0001415,53.2166,191.525,87.2846,272.8308,3.959e-05,3.42e-06,0.0,0 STARLINK-4485,1 53541U 22101Q   24051.80033936  .00000342  00000-0  39590-4 0  9997,2 53541  53.2166 191.5250 0001415  87.2846 272.8308 15.08845144 83261,6917.865,95.437,540.709,538.751,0.0
53541.0,STARLINK-4485,PAYLOAD,2024-02-21 14:17:06,15.0884431,0.0001297,53.2156,187.9532,95.763,264.351,0.00026391,3.915e-05,0.0,0 STARLINK-4485,1 53541U 22101Q   24052.59521893  .00003915  00000-0  26391-3 0  9991,2 53541  53.2156 187.9532 0001297  95.7630 264.3510 15.08844310 84070,6917.867,95.437,540.629,538.835,0.0
53541.0,STARLINK-4485,PAYLOAD,2024-02-21 15:52:29,15.08848448,0.0001365,53.2161,187.6601,88.3152,271.7996,0.00028517,4.254e-05,0.0,0 STARLINK-4485,1 53541U 22101Q   24052.66145716  .00004254  00000-0  28517-3 0  9994,2 53541  53.2161 187.6601 0001365  88.3152 271.7996 15.08848448 84080,6917.855,95.437,540.664,538.775,0.0
53541.0,STARLINK-4485,PAYLOAD,2024-02-22 12:32:31,15.08840465,0.0001378,53.2163,183.7956,90.2132,269.9018,1.2742e-05,-8.5e-07,0.0,0 STARLINK-4485,1 53541U 22101Q   24053.52258217 -.00000085  00000-0  12742-4 0  9994,2 53541  53.2163 183.7956 0001378  90.2132 269.9018 15.08840465 83529,6917.879,95.438,540.697,538.791,0.0
53541.0,STARLINK-4485,PAYLOAD,2024-02-22 14:07:54,15.08840371,0.0001363,53.2169,183.4988,88.8002,271.3146,9.3061e-06,-1.4e-06,0.0,0 STARLINK-4485,1 53541U 22101Q   24053.58882184 -.00000140  00000-0  93061-5 0  9992,2 53541  53.2169 183.4988 0001363  88.8002 271.3146 15.08840371 84223,6917.879,95.438,540.687,538.801,0.0
53541.0,STARLINK-4485,PAYLOAD,2024-02-22 15:43:17,15.08842617,0.0001276,53.2159,183.2009,89.6774,270.4364,3.8586e-05,3.26e-06,0.0,0 STARLINK-4485,1 53541U 22101Q   24053.65505993  .00000326  00000-0  38586-4 0  9995,2 53541  53.2159 183.2009 0001276  89.6774 270.4364 15.08842617 84230,6917.872,95.437,540.62,538.855,0.0
53541.0,STARLINK-4485,PAYLOAD,2024-02-23 13:58:41,15.08836504,0.0001524,53.2175,179.0412,114.289,245.8261,-0.00012238,-2.235e-05,0.0,0 STARLINK-4485,1 53541U 22101Q   24054.58242447 -.00002235  00000-0 -12238-3 0  9998,2 53541  53.2175 179.0412 0001524 114.2890 245.8261 15.08836504 84374,6917.891,95.438,540.81,538.702,0.0
53541.0,STARLINK-4485,PAYLOAD,2024-02-23 17:09:27,15.08838113,0.0001398,53.2164,178.4452,103.5852,256.5296,-5.6614e-05,-1.189e-05,0.0,0 STARLINK-4485,1 53541U 22101Q   24054.71490441 -.00001189  00000-0 -56614-4 0  9996,2 53541  53.2164 178.4452 0001398 103.5852 256.5296 15.08838113 83708,6917.886,95.438,540.718,538.784,0.0
53541.0,STARLINK-4485,PAYLOAD,2024-02-24 13:49:28,15.08843292,0.0001254,53.2152,174.578,109.7081,250.4046,0.00014055,1.95e-05,0.0,0 STARLINK-4485,1 53541U 22101Q   24055.57602456  .00001950  00000-0  14055-3 0  9998,2 53541  53.2152 174.5780 0001254 109.7081 250.4046 15.08843292 84520,6917.87,95.437,540.603,538.868,0.0
53541.0,STARLINK-4485,PAYLOAD,2024-02-25 13:40:15,15.08851295,0.0001363,53.2153,170.1174,87.7724,272.3424,0.00026123,3.873e-05,0.0,0 STARLINK-4485,1 53541U 22101Q   24056.56962087  .00003873  00000-0  26123-3 0  9992,2 53541  53.2153 170.1174 0001363  87.7724 272.3424 15.08851295 83984,6917.846,95.437,540.654,538.768,0.0
53541.0,STARLINK-4485,PAYLOAD,2024-02-25 15:15:38,15.088546,0.0001422,53.216,169.8204,86.3326,273.7829,0.00031059,4.66e-05,0.0,0 STARLINK-4485,1 53541U 22101Q   24056.63585944  .00004660  00000-0  31059-3 0  9992,2 53541  53.2160 169.8204 0001422  86.3326 273.7829 15.08854600 84685,6917.836,95.437,540.684,538.717,0.0
53541.0,STARLINK-4485,PAYLOAD,2024-02-26 11:55:39,15.08846473,0.0001917,53.2167,165.9541,92.4556,267.6655,9.1513e-05,1.169e-05,0.0,0 STARLINK-4485,1 53541U 22101Q   24057.49698098  .00001169  00000-0  91513-4 0  9995,2 53541  53.2167 165.9541 0001917  92.4556 267.6655 15.08846473 84122,6917.861,95.437,541.052,538.399,0.0
53541.0,STARLINK-4485,PAYLOAD,2024-02-26 13:31:02,15.08846919,0.0001642,53.2173,165.6577,92.7497,267.3683,9.2125e-05,1.179e-05,0.0,0 STARLINK-4485,1 53541U 22101Q   24057.56322085  .00001179  00000-0  92125-4 0  9994,2 53541  53.2173 165.6577 0001642  92.7497 267.3683 15.08846919 84827,6917.859,95.437,540.86,538.588,0.0
